OPS 6582 (TRANSIT 5B-5) 
1 00965U 64083D   22298.45431043  .00000077  00000+0  95023-4 0  9994
2 00965  90.0338 195.8487 0039980 206.7242 326.9402 13.56791225863148
OSCAR 7 (AO-7)          
1 07530U 74089B   22298.43838396 -.00000046  00000+0  15289-5 0  9990
2 07530 101.9218 278.7896 0012239 151.4578  16.9860 12.53658063193758
UOSAT 2 (UO-11)         
1 14781U 84021B   22298.40309793  .00000893  00000+0  11359-3 0  9995
2 14781  97.6317 280.0192 0006791 251.5307 108.5170 14.83908243 59316
NOAA 9                  
1 15427U 84123A   22298.38970317  .00000074  00000+0  60592-4 0  9994
2 15427  99.0627 272.9123 0015172 153.7869 334.9407 14.16236512955005
LUSAT (LO-19)           
1 20442U 90005G   22298.38418520  .00000101  00000+0  53661-4 0  9996
2 20442  98.8119 265.3359 0012342 143.1044 217.0991 14.33102069711717
ITAMSAT (IO-26)         
1 22826U 93061D   22298.35291643  .00000084  00000+0  49756-4 0  9991
2 22826  98.8698 331.9379 0009359  26.0886 334.0765 14.30552334516988
RADIO ROSTO (RS-15)     
1 23439U 94085A   22298.59398269 -.00000039  00000+0  10000-3 0  9997
2 23439  64.8182 295.1255 0167920 250.3951 107.8778 11.27573236146164
JAS-2 (FO-29)           
1 24278U 96046B   22298.42386996 -.00000006  00000+0  32255-4 0  9995
2 24278  98.5148 304.2209 0349485 306.1570  50.7700 13.53122834293189
NOAA 15                 
1 25338U 98030A   22298.49292518  .00000124  00000+0  70233-4 0  9999
2 25338  98.6339 326.2681 0009283 279.2592  80.7538 14.26186689271559
TECHSAT 1B (GO-32)      
1 25397U 98043D   22298.29841541  .00000054  00000+0  43440-4 0  9994
2 25397  98.8335 249.1939 0002366  90.1080 270.0370 14.23781267261904
ISS (ZARYA)             
1 25544U 98067A   22298.70251956  .00092330  00000+0  16374-2 0  9997
2 25544  51.6431  50.0017 0005670   3.9708 141.4403 15.49452998365423
ORSTED                  
1 25635U 99008B   22298.49393553  .00000398  00000+0  10081-3 0  9993
2 25635  96.4451 132.8888 0139340 125.7074 235.7183 14.48574069249109
PHASE 3D (AO-40)        
1 26609U 00072B   22298.35689191  .00000072  00000+0  00000+0 0  9994
2 26609   5.5242 237.9647 7972883  72.6284 353.6626  1.25588822100782
PCSAT (NO-44)           
1 26931U 01043C   22298.40609522  .00000102  00000+0  70447-4 0  9998
2 26931  67.0505  82.9565 0005349 261.2725  98.7771 14.30750804 99994
SAUDISAT 1C (SO-50)     
1 27607U 02058C   22298.32264659  .00000903  00000+0  14330-3 0  9992
2 27607  64.5539 264.4240 0081603 269.7523  89.4229 14.76349497 67540
CUTE-1 (CO-55)          
1 27844U 03031E   22298.48394735  .00000243  00000+0  12835-3 0  9998
2 27844  98.6810 304.2246 0010973  86.1428 274.1005 14.22522162  2366
CUBESAT XI-IV (CO-57)   
1 27848U 03031J   22298.48777803  .00000196  00000+0  10821-3 0  9993
2 27848  98.6852 304.7188 0010856  99.2270 261.0136 14.22069442  2149
MOZHAYETS 4 (RS-22)     
1 27939U 03042A   22298.56611474  .00001010  00000+0  18652-3 0  9992
2 27939  98.2110  79.4071 0013262 153.1374 207.0521 14.67560320 20125
INMARSAT 4-F1           
1 28628U 05009A   22298.50892502 -.00000246  00000+0  00000+0 0  9995
2 28628   3.7093  36.3287 0002764 180.7958 143.4911  1.00272318 64328
NOAA 18                 
1 28654U 05018A   22298.44864802  .00000161  00000+0  11066-3 0  9992
2 28654  98.9374   8.7080 0013579 327.2422  32.7906 14.12795389898424
CUBESAT XI-V            
1 28895U 05043F   22298.33831403  .00000927  00000+0  18333-3 0  9990
2 28895  98.1248  67.8625 0017723  92.6643 267.6589 14.64592724906428
METOP-A                 
1 29499U 06044A   22298.47558497  .00000978  00000+0  13813-3 0  9991
2 29499  98.4367 347.1440 0196354 320.5929 156.1726 14.67505962829746
CARTOSAT-2 (IRS-P7)     
1 29710U 07001B   22298.46573850  .00013560  00000+0  30759-3 0  9999
2 29710  97.8758  51.8900 0138642 320.4838  38.6356 15.33622302856131
FALCONSAT-3             
1 30776U 07006E   22297.73002143  .00083950  00000+0  76603-3 0  9997
2 30776  35.4261 127.0341 0004425 327.7784  32.2681 15.66628727869765
CAPE-1                  
1 31130U 07012P   22298.49537282  .00000843  00000+0  18609-3 0  9992
2 31130  98.2800 238.2246 0093381 250.2284 108.8827 14.57365865824032
CARTOSAT-2A             
1 32783U 08021A   22298.54830936  .00001022  00000+0  14622-3 0  9997
2 32783  97.9518 357.3640 0013984 107.3568 252.9173 14.78698633782244
CUTE-1.7+APD II (CO-65) 
1 32785U 08021C   22298.39427995  .00002251  00000+0  23813-3 0  9996
2 32785  97.6743 265.2697 0013198 155.6290 204.5555 14.90092962785839
COMPASS-1               
1 32787U 08021E   22298.39189722  .00003318  00000+0  29433-3 0  9990
2 32787  97.5764 276.0991 0013326  72.2421 288.0254 14.96790700787480
AAUSAT-II               
1 32788U 08021F   22298.42913241  .00004869  00000+0  40970-3 0  9997
2 32788  97.5464 279.3128 0012743  55.2654 304.9767 14.98631829787897
DELFI-C3 (DO-64)        
1 32789U 08021G   22298.05697805  .00012440  00000+0  63066-3 0  9997
2 32789  97.3307 319.8666 0008104 221.6532 138.4085 15.17063640791552
SEEDS II (CO-66)        
1 32791U 08021J   22298.19787123  .00003025  00000+0  29275-3 0  9991
2 32791  97.6271 270.4422 0014336 114.1831 246.0889 14.93402559786553
YUBILEINY (RS-30)       
1 32953U 08025A   22298.51885953  .00000024  00000+0  10000-3 0  9993
2 32953  82.4989 103.0534 0019194 338.2611  21.7656 12.43114310654493
FENGYUN 3A              
1 32958U 08026A   22298.30474426  .00000064  00000+0  51084-4 0  9997
2 32958  98.5207 255.7282 0009073  15.1284 345.0162 14.18752773746633
PRISM (HITOMI)          
1 33493U 09002B   22298.46222537  .00004627  00000+0  36573-3 0  9992
2 33493  98.2490 292.6226 0016558 107.0555 253.2483 15.01100951748473
STARS (KUKAI)           
1 33498U 09002G   22298.51916596  .00001473  00000+0  20008-3 0  9990
2 33498  98.1515 192.6310 0010206 185.0460 175.0650 14.80360094740676
KKS-1 (KISEKI)          
1 33499U 09002H   22298.46123728  .00000766  00000+0  11840-3 0  9990
2 33499  98.1969 182.5363 0007578 258.6593 101.3764 14.76212605739426
NOAA 19                 
1 33591U 09005A   22298.46476850  .00000174  00000+0  11907-3 0  9990
2 33591  99.1352 335.2585 0013969 179.1691 180.9505 14.12627201706541
SWISSCUBE               
1 35932U 09051B   22298.17651221  .00000622  00000+0  14912-3 0  9994
2 35932  98.5499 157.6416 0007964  17.4266 342.7203 14.57030224694985
BEESAT-1                
1 35933U 09051C   22298.33696069  .00000535  00000+0  12974-3 0  9991
2 35933  98.5434 159.3416 0006397  30.9022 329.2551 14.57026086695082
ITUPSAT1                
1 35935U 09051E   22298.36555213  .00000489  00000+0  12193-3 0  9992
2 35935  98.5535 159.3917 0008730  31.7116 328.4605 14.56123195694783
XIWANG-1 (HOPE-1)       
1 36122U 09072B   22298.31292029 -.00000027  00000+0  42802-4 0  9992
2 36122 100.2019 264.9920 0008020  45.9208 314.2565 13.16373381617892
CARTOSAT-2B             
1 36795U 10035A   22298.45092264  .00000613  00000+0  90562-4 0  9999
2 36795  97.9464 357.3253 0013523 178.7681 181.3565 14.78664675663278
TISAT 1                 
1 36799U 10035E   22298.39093099  .00002096  00000+0  20461-3 0  9990
2 36799  98.1648 153.9081 0012491  33.5288 326.6719 14.93524349667158
FENGYUN 3B              
1 37214U 10059A   22298.45612774  .00000022  00000+0  35873-4 0  9994
2 37214  99.0951 306.7525 0021887 351.3017   8.7769 14.14270543619336
JUGNU                   
1 37839U 11058B   22298.50012676  .00000435  00000+0  89147-4 0  9999
2 37839  19.9602 106.6531 0018861 150.6623 239.6950 14.12822604570554
SRMSAT                  
1 37841U 11058D   22298.42554891  .00000401  00000+0  75260-4 0  9997
2 37841  19.9708 189.2701 0011756 332.3418 184.5437 14.10785804569618
M-CUBED & EXP-1 PRIME   
1 37855U 11061F   22298.34395024  .00008065  00000+0  33525-3 0  9999
2 37855 101.7191 126.5761 0146067  32.3354 328.6713 15.15081335600886
HORYU-2                 
1 38340U 12025D   22298.23141353  .00001444  00000+0  21236-3 0  9992
2 38340  98.1870  18.5311 0011663 166.5813 193.5708 14.76994633551397
METOP-B                 
1 38771U 12049A   22298.49331233  .00000098  00000+0  64652-4 0  9996
2 38771  98.7144 356.3758 0001332  66.2891 356.2757 14.21485821524203
SARAL                   
1 39086U 13009A   22298.48787435  .00000059  00000+0  38323-4 0  9994
2 39086  98.5478 122.2181 0000351 148.9903 211.1301 14.32039302505094
AAUSAT 3                
1 39087U 13009B   22298.27293374  .00000574  00000+0  21100-3 0  9992
2 39087  98.3914 134.5326 0011362 237.3435 122.6657 14.36300953506214
STRAND-1                
1 39090U 13009E   22298.10134035  .00000183  00000+0  78814-4 0  9997
2 39090  98.3967 132.8279 0007978 242.4603 117.5773 14.35351000505990
BRITE-AUSTRIA           
1 39091U 13009F   22298.50652172  .00000135  00000+0  62146-4 0  9997
2 39091  98.3987 132.4112 0009358 248.8501 111.1685 14.35317405506080
UNIBRITE                
1 39092U 13009G   22298.12158763  .00000121  00000+0  57409-4 0  9994
2 39092  98.4022 131.8232 0008291 244.6201 115.4127 14.35187950505980
SOMP                    
1 39134U 13015E   22298.42781052  .00016674  00000+0  52229-3 0  9998
2 39134  64.8611 354.2346 0033345 263.2810  96.4528 15.32694535526746
BEESAT-3                
1 39135U 13015F   22298.29860326  .00013871  00000+0  51977-3 0  9991
2 39135  64.8669  34.1033 0038340 264.9860  94.6894 15.26820174525917
BEESAT-2                
1 39136U 13015G   22298.30553480  .00012131  00000+0  47885-3 0  9995
2 39136  64.8752  43.0647 0024303 293.3513  66.5060 15.25588865525703
NEE-01 PEGASO           
1 39151U 13018B   22298.29322053  .00001495  00000+0  19823-3 0  9995
2 39151  97.9989  43.5827 0016494 190.2960 169.7917 14.81282182512894
CUBEBUG-1 (CAPITAN BETO)
1 39153U 13018D   22298.29757191  .00001628  00000+0  21139-3 0  9993
2 39153  98.0233  48.5202 0016447 184.6806 175.4255 14.82043224512988
